Location_Id,City,State,Zipcode,Country
1,CLA,MD,20871,US
2,WAS,DC,20001,US
3,MAN,NY,11030,US
4,CON,CON,0,US
5,CP,MD,20742,US
6,SER,RJ,0,BR
7,LA,CA,90031,US
8,PAL,IL,60067,US
9,WIS,VA,24293,US
10,ELL,WA,98926,US
11,CON,CON,0,US
12,CON,CON,0,US
13,PIT,PA,15222,US
14,CON,CON,0,US
15,RDG,TN,38066,IT
16,NY,NY,10007,US
17,IST,IST,34750,TR
18,QUE,NY,11413,US
19,GRA,IL,60030,US
20,SS,MD,20910,US
21,WAS,DC,20008,US
22,WIL,CA,95688,US
23,CON,CON,0,US
24,JOH,PA,15904,US
25,JOI,IL,60431,US
26,MIA,FL,33125,US
27,RED,CA,96001,US
28,FC,CA,95231,US
29,FC,CA,95231,US
30,BRO,NY,11214,US
31,LEE,VA,20175,US
32,CON,CON,0,AE
33,WAR,MI,48909,US
34,HK,NT,850,HK
35,FIS,VA,22939,US
36,MIA,FL,33137,US
37,RAD,VA,24142,US
38,CHA,HUN,410000,CN
39,CHA,HUN,410000,CN
40,CON,CON,0,US
41,GAI,FL,32611,US
42,ARL,VA,22201,US
43,SF,CA,94404,US
44,FAR,HAR,121002,IN
45,CON,CON,0,US
46,SHE,MA,1770,US
47,BLO,IN,47408,US
48,NAS,TN,37201,US
49,LUB,TX,79401,US
50,BLA,VA,24061,US
51,RIC,VA,23227,US
52,BOW,MD,20715,US
53,CON,CON,0,CN
54,NB,WA,98045,US
55,SYL,CA,91342,US
56,BOS,MA,2118,US
57,CON,CON,0,US
58,CON,CON,0,US
59,HAY,CA,94545,US
60,CHA,VA,22904,US
61,MIN,MN,55418,US
62,WAT,MA,2472,US
63,TOW,MD,21252,US
64,SHE,GUA,518000,CN
65,SYR,NY,13210,US
66,LEW,NY,14092,US
67,NN,VA,23606,US
68,CHA,NC,28208,US
69,NY,NY,10003,US
70,LB,CA,90801,US
71,DOV,DE,19902,US
72,CON,CON,0,US
73,FAI,VA,22035,US
74,CON,CON,0,US
75,STE,VA,20175,US
76,MAL,MT,59402,US
77,BOS,MA,2110,US
78,SWE,FL,33174,US
79,WIL,VA,23185,US
80,LJ,CA,92037,US
81,CC,MD,20815,US
82,TOW,MD,21252,US
83,CON,CON,0,US
84,CON,CON,0,US
85,CON,CON,0,AE
86,TRI,TS,34121,IT
87,WAR,OR,97146,US
88,FAI,VA,22030,US
89,LAU,MD,20723,US
90,CON,CON,0,US
91,CHR,FL,32709,US
92,PHI,PA,19118,US
93,PAL,IL,60067,US
94,ARL,VA,22203,US
95,NEW,MA,1950,US
96,BAN,KAR,562158,IN
97,IST,IST,34433,TR
98,IST,IST,34846,TR
99,IST,IST,34846,TR
100,HAR,PA,17102,US
101,RAK,AE,0,AE
102,HAR,VA,22807,US
103,CON,CON,0,CN
104,CON,CON,0,US
105,ATL,GA,30310,US
106,HAY,CA,94545,US
107,WIN,MB,0,CA
108,CAL,AB,0,CA
109,HON,HI,96814,US
110,CAM,MA,2142,US
111,SEA,WA,98158,US
112,CON,CON,0,IT
113,LA,CA,90024,US
114,SEA,WA,98101,US
115,SAC,CA,95817,US
116,BRA,ON,0,CA
117,CHA,VA,22903,US
118,CHI,CA,95929,US
119,HER,VA,20171,US
120,WAS,DC,20003,US
121,PYE,KYO,17979,KR
122,PH,CA,94523,US
123,CON,CON,0,IT
124,WIN,MB,0,CA
125,ANT,NS,0,CA
126,MON,QC,0,CA
127,IST,IST,34320,TR
128,CAM,MA,2141,US
129,LB,CA,90807,US
130,PIT,PA,15219,US
131,AVO,CO,81620,US
132,SDB,QC,0,CA
133,LYN,WA,98036,US
134,NY,NY,10019,US
135,SP,CA,94806,US
136,LAT,PA,15650,US
137,NH,CT,6511,US
138,DEN,CO,80249,US
139,SLO,CA,93407,US
140,CON,CON,0,ES
141,AUB,AL,36830,US
142,LEX,KY,40507,US
143,LEX,KY,40507,US
144,SF,CA,94124,US
145,HAN,NH,3755,US
146,TOR,ON,0,CA
147,CIN,OH,45219,US
148,LA,CA,90045,US
149,PAR,NJ,7652,US
150,CON,CON,0,US
151,VIC,BC,0,CA
152,GAM,OH,43022,US
153,INN,AB,0,CA
154,CON,CON,0,US
155,FB,VA,22060,US
156,HEA,OH,43056,US
157,SNO,WA,20812,US
158,GR,MI,49503,US
159,RIC,VA,23284,US
160,CON,CON,0,US
161,MUN,IN,47306,US
162,SJ,CA,95112,US
163,LA,CA,90095,US
164,CON,CON,0,IN
165,SA,TX,78205,US
166,IC,IA,52240,US
167,CON,CON,0,KR
168,SDQ,QRO,76000,MX
169,IST,IST,34467,TR
170,TOR,ON,0,CA
171,GOL,CO,80403,US
172,DB,FL,33442,US
173,COL,OH,0,US
174,MUN,IN,47306,US
175,MON,VT,1030,IT
176,CON,CON,0,US
177,LEX,VA,24450,US
178,TAM,FL,33620,US
179,CON,CON,0,BR
180,CON,CON,0,US
181,RED,WA,98052,US
182,CON,CON,0,US
183,WIL,VA,23185,US
184,WIL,VA,23185,US
185,OAK,ON,0,CA
186,GRA,MA,1519,US
187,CON,CON,0,US
188,BUR,VT,5405,US
189,PH,CA,94523,US
190,CAL,AB,0,CA
191,SAL,SAL,37002,ES
192,MID,CT,6457,US
193,COL,OH,43215,US
194,WAS,DC,20003,US
195,WAS,DC,20003,US
196,FOS,GUA,528313,CN
197,POR,OR,97205,US
198,AD,AE,96082,AE
199,BAL,MD,21251,US
200,RAL,NC,27614,US
201,DOV,DE,19901,US
202,MAD,MAD,28045,ES
203,PLA,WI,0,US
204,MIS,MT,59801,US
205,REA,PA,19610,US
206,SPR,VA,22150,US
207,BS,MS,38828,US
208,ND,IN,46556,US
209,DAV,CA,95616,US
210,SEA,WA,98105,US
211,CAM,MA,2138,US
212,TIA,TIA,300451,CN
213,TIA,TIA,300451,CN
214,CON,CON,0,US
215,ODM,BCN,8640,ES
216,AUS,TX,78719,US
217,COL,OH,43210,US
218,TEK,TEK,59850,TR
219,ATL,GA,0,US
220,SAI,QC,0,CA
221,CON,CON,0,US
222,IND,IN,46203,US
223,CON,CON,0,US
224,HOU,TX,77055,US
225,HH,KY,41099,US
226,TOR,ON,0,CA
227,FRE,VA,22401,US
228,COL,MD,21045,US
229,DEN,CO,80216,US
230,OTT,ON,0,CA
231,PAS,WA,99301,US
232,LA,CA,90032,US
233,BOL,BO,40121,IT
234,HAN,NH,3755,US
235,MA,PA,17237,US
236,ND,IN,46556,US
237,HOU,TX,77072,US
238,ALE,VA,22314,US
239,DUB,AE,0,AE
240,WL,IN,47907,US
241,DM,IA,50317,US
242,MIL,MI,20135,IT
243,MUR,CA,92563,US
244,CON,CON,0,US
245,OTT,ON,0,CA
246,BAR,BCN,8035,ES
247,PIT,PA,15213,US
248,MCH,MD,21541,US
249,DEN,CO,80216,US
250,CON,CON,0,US
251,HOU,TX,77030,US
252,SSL,UT,84106,US
253,NAS,TN,37203,US
254,BAL,MD,21216,US
255,CON,CON,0,US
256,SEA,WA,98195,US
257,REN,WA,98058,US
258,WAS,DC,20002,US
259,VAL,VI,36078,IT
260,BV,OH,44140,US
261,SF,CA,94110,US
262,BOS,MA,2114,US
263,CON,CON,0,US
264,DAY,OH,45409,US
265,BLA,VA,24061,US
266,BRO,NY,10454,US
267,PHI,PA,19139,US
268,SJ,CA,0,US
269,COL,OH,43222,US
270,NC,MD,20785,US
271,KEP,ANT,27560,TR
272,ARL,VA,22202,US
273,CON,CON,0,US
274,SLC,UT,84112,US
275,DEN,CO,80202,US
276,SL,MO,63110,US
277,HYD,TG,500032,IN
278,QIO,SIC,610000,CN
279,NO,LA,70118,US
280,MIA,FL,33199,US
281,ARL,VA,22202,US
282,NAS,TN,37203,US
283,POR,OR,97203,US
284,PIT,PA,15233,US
285,KIT,ON,0,CA
286,TAM,FL,33634,US
287,JAC,FL,32202,US
288,AME,IA,50011,US
289,FAI,VA,22031,US
290,GAI,FL,32611,US
291,LC,NM,88012,US
292,SAR,FL,34234,US
293,ORL,FL,32816,US
294,VIE,VA,22180,US
295,BN,NY,14215,US
296,CON,CON,0,ES
297,CON,CON,0,ES
298,CON,CON,0,ES
299,CON,CON,0,ES
300,BR,MI,49307,US
301,BEL,WA,98225,US
302,LV,NV,89101,US
303,SF,CA,94158,US
304,CQ,CHO,400000,CN
305,PIT,PA,15213,US
306,CLE,OH,44106,US
307,CON,CON,0,US
308,AA,MI,48109,US
309,CON,CON,0,IT
310,SL,MO,63110,US
311,TOR,ON,0,CA
312,SA,AB,0,CA
313,SB,CA,94066,US
314,RAC,WI,53403,US
315,MOB,AL,36615,US
316,MAR,NY,13403,US
317,MAR,NY,13403,US
318,PIT,PA,15110,US
319,WAS,DC,20064,US
320,MUM,MAH,400701,IN
321,MV,VE,30173,IT
322,CON,CON,0,CN
323,MOR,TN,37357,US
324,CON,CON,0,US
325,AUS,TX,77950,US
326,CON,CON,0,US
327,CIN,OH,45221,US
328,OXF,OH,45056,US
329,WAS,DC,20002,US
330,PHI,PA,19140,US
331,FM,FL,33965,US
332,BLA,VA,24060,US
333,BLU,UT,84065,US
334,CON,CON,0,US
335,SJ,CA,95117,US
336,CON,CON,0,US
337,DUB,AE,0,AE
338,CON,CON,0,US
339,WAT,ME,4901,US
340,GC,NY,11530,US
341,CON,CON,0,US
342,CHA,SC,29404,US
343,CON,CON,0,US
344,POR,OR,97205,US
345,SEA,WA,98195,US
346,CHE,WA,98532,US
347,DAY,OH,45417,US
348,LIV,CA,94551,US
349,KOP,PA,19406,US
350,GAI,FL,32611,US
351,MOB,AL,36615,US
352,BUR,MA,1803,US
353,MOB,AL,36615,US
354,BEL,CO,80512,US
355,CP,MD,20740,US
356,ANN,VA,22003,US
357,BAL,MD,21218,US
358,CG,FL,33146,US
359,SAC,CA,95814,US
360,CON,CON,0,US
361,BLA,VA,24060,US
362,AUS,TX,78702,US
363,SD,CA,92154,US
364,SD,CA,92154,US
365,DAV,CA,95616,US
366,LUK,AZ,86507,US
367,IC,IA,52240,US
368,KUN,JIA,215337,CN
369,KUN,JIA,215337,CN
370,LAW,GA,30045,US
371,CON,CON,0,US
372,ARL,VA,22201,US
373,CON,CON,0,US
374,FAI,VA,22031,US
375,NOA,MS,0,BR
376,BAR,BCN,8018,ES
377,CON,CON,0,CN
378,CHE,TN,600124,IN
379,WL,IN,47906,US
380,FL,FL,33334,US
381,NAS,TN,37203,US
382,DM,IA,50313,US
383,ELK,VA,22827,US
384,BLO,NM,87413,US
385,WAS,DC,20001,US
386,WAS,DC,20001,US
387,CON,CON,0,ES
388,IPS,MA,1938,US
389,GUA,GUA,510655,CN
390,HAY,CA,94545,US
391,MAD,MAD,28004,ES
392,MOA,UT,84532,US
393,CON,CA,94520,US
394,WAS,DC,20009,US
395,OVI,AQ,67046,IT
396,GRA,QC,0,CA
397,SF,CA,94158,US
398,LV,NV,89106,US
399,CON,CON,0,US
400,SAL,MD,21804,US
401,PP,FL,33026,US
402,SF,CA,94107,US
403,PMNAS,CA,93041,US
404,ASH,NC,28801,US
405,WAS,DC,20002,US
406,COL,OH,43210,US
407,EVE,WA,98201,US
408,RIC,WA,99352,US
409,AUS,TX,78717,US
410,BRI,MA,2135,US
411,CLE,OH,44103,US
412,TUC,AZ,85719,US
413,FAI,VA,22030,US
414,NO,LA,70118,US
415,CHA,TN,37406,US
416,LIT,MA,1460,US
417,HOU,TX,77005,US
418,BOS,MA,2115,US
419,VAN,WA,98661,US
420,FC,CO,80525,US
421,SD,CA,92123,US
422,WAS,DC,20064,US
423,BOL,BO,40128,IT
424,SP,MN,55105,US
425,POR,ME,4101,US
426,BOZ,MT,59718,US
427,CON,CON,0,IT
428,VIL,PA,19085,US
429,HOU,TX,0,US
430,CAM,MA,2139,US
431,MAD,MAD,28036,ES
432,ING,CA,90303,US
433,CON,CON,0,IT
434,EP,TX,79938,US
435,IRV,CA,92612,US
436,EUG,OR,97401,US
437,IRV,CA,92612,US
438,IRV,CA,92612,US
439,CON,CON,0,US
440,SC,CT,6901,US
441,FL,CO,80621,US
442,BLA,VA,23824,US
443,LIV,CA,94551,US
444,LIV,CA,94551,US
445,PIT,PA,15213,US
446,FRA,KY,40601,US
447,MIA,FL,33132,US
448,TAI,JIA,215400,CN
449,CON,CON,0,US
450,SD,CA,92182,US
451,BAN,IL,60015,US
452,HAM,CT,6518,US
453,TAC,WA,98402,US
454,LAK,CO,80225,US
455,MUM,MAH,400013,IN
456,KI,SC,29455,US
457,LAV,QC,0,CA
458,PHO,AZ,85004,US
459,GP,VA,23062,US
460,HON,HI,96822,US
461,MIL,MI,20123,IT
462,BOS,MA,2118,US
463,VAU,QC,0,CA
464,VAL,CA,94590,US
465,MAD,MAD,28001,ES
466,JIN,SHA,250000,CN
467,WOR,MA,1655,US
468,BOU,CO,80301,US
469,TAM,FL,33620,US
470,IRV,CA,92612,US
471,CON,CON,0,MX
472,HOU,MI,49931,US
473,GOL,CO,80401,US
474,CHO,CHO,401139,CN
475,REN,NV,89512,US
476,DAV,CA,95616,US
477,MIL,MI,20128,IT
478,LP,CA,91744,US
479,CON,CON,0,US
480,TAM,FL,32789,US
481,SM,CA,94401,US
482,CON,CON,0,US
483,IND,IN,46222,US
484,RES,VA,20190,US
485,RES,VA,20190,US
486,BEL,CA,90706,US
487,WUX,JIA,200001,CN
488,BOS,MA,2122,US
489,WAS,DC,20036,US
490,CON,CON,0,US
491,ALE,VA,22315,US
492,RES,VA,20190,US
493,RES,VA,20190,US
494,RES,VA,20190,US
495,ALE,VA,22315,US
496,RES,VA,20190,US
497,COC,MD,21030,US
498,COI,TN,641659,IN
499,FC,CA,94404,US
500,RIV,CA,92507,US
501,SAS,SK,0,CA
502,KEN,NY,14216,US
503,CON,CON,0,IT
504,PVB,FL,32082,US
505,WDM,IA,50266,US
506,BRA,KY,40108,US
507,CON,CON,0,BR
508,LAK,CO,80232,US
509,BUS,FL,33513,US
510,SD,CA,92114,US
511,MEM,TN,38104,US
512,AUS,TX,78712,US
513,BAR,BCN,8007,ES
514,CLE,OH,44103,US
515,BIL,MT,59101,US
516,CON,CON,0,US
517,CON,CON,0,US
518,CON,CON,0,US
519,PC,CO,81621,US
520,BAS,CO,81621,US
521,REU,TAR,43206,ES
522,CON,CON,0,CN
523,CON,CON,0,CN
524,KC,MO,64106,US
525,KC,MO,64106,US
526,TUR,TO,10139,IT
527,BER,KY,40404,US
528,SJ,CA,95135,US
529,MER,KS,66202,US
530,BOU,CO,80303,US
531,UP,TX,75205,US
532,MIS,MT,59801,US
533,OKE,MI,48864,US
534,ATL,GA,30318,US
535,CHE,TN,600003,IN
536,CHA,CHA,130028,CN
537,SV,WA,99206,US
538,TEM,AZ,85281,US
539,SAI,QC,0,CA
540,LYN,WA,98264,US
541,CON,CON,0,US
542,SHA,SHA,200040,CN
543,TON,KS,66086,US
544,MB,FL,33139,US
545,PB,FL,33064,US
546,MAR,PR,0,BR
547,EDM,WA,98020,US
548,ATL,GA,30308,US
549,CHI,IL,60651,US
550,CON,CON,0,US
551,CON,CON,0,IT
552,CON,CON,0,US
553,SUN,CA,94086,US
554,BUR,BUR,15000,TR
555,SP,MN,55116,US
556,SP,MN,55116,US
557,RC,CA,94063,US
558,PIN,ZHE,314299,CN
559,XI',SHA,710300,CN
560,TAM,FL,33602,US
561,SAC,CA,95814,US
562,NAS,TN,37212,US
563,SS,CO,80487,US
564,DB,FL,33442,US
565,LA,CA,91307,US
566,ENG,CO,80113,US
567,KK,KON,42400,TR
568,PHI,PA,19104,US
569,LET,AB,0,CA
570,ROA,IN,46783,US
571,SD,CA,92101,US
572,RIC,TX,75082,US
573,ALL,MI,49401,US
574,CUR,PD,35010,IT
575,SUR,GUJ,394315,IN
576,EC,WI,54703,US
577,NAP,FL,34108,US
578,MAR,CA,94553,US
579,CAL,AB,0,CA
580,YON,KYO,17113,KR
581,NOK,FL,34275,US
582,GN,UP,201310,IN
583,CON,CON,0,CN
584,CON,CON,0,CN
585,RAH,NJ,7065,US
586,CP,MD,20742,US
587,GUA,GUA,510000,CN
588,IST,IST,34676,TR
589,CON,CON,0,US
590,MIA,FL,33166,US
591,OXF,OH,45056,US
592,CON,CON,0,US
593,AMA,AMA,5300,TR
594,CON,CON,0,IT
595,CON,CON,0,US
596,JIA,ZHE,410000,CN
597,JIA,ZHE,410000,CN
598,CLE,OH,44106,US
599,SAL,QC,0,CA
600,CON,CON,0,US
601,CON,CON,0,US
602,NOR,TX,76247,US
603,HYD,TG,500043,IN
604,FIR,FI,50127,IT
605,LIN,NE,68522,US
606,KAL,MI,49001,US
607,CHE,SIC,610000,CN
608,UC,CA,91608,US
609,POR,OR,97210,US
610,WUX,JIA,214028,CN
611,WUX,JIA,214028,CN
612,CON,CON,0,US
613,CON,CON,0,US
614,BOR,NO,28021,IT
615,CIN,OH,45215,US
616,CON,CON,0,IN
617,CON,CON,0,IN
618,CON,CON,0,TR
619,DAL,BG,24044,IT
620,WAT,MA,2472,US
621,WAT,MA,2472,US
622,MAD,MAD,28042,ES
623,CSA,PE,65013,IT
624,BUF,NY,14222,US
625,MON,QC,0,CA
626,MON,QC,0,CA
627,WOR,MA,1610,US
628,LDG,BS,25017,IT
629,CON,CON,0,CA
630,CON,CON,0,US
631,TIA,TIA,300000,CN
632,CON,CON,0,US
633,LV,NV,89135,US
634,RH,SC,29730,US
635,LON,CO,80124,US
636,CON,CON,0,US
637,CON,CON,0,US
638,CON,CON,0,US
639,ADA,ADA,1200,TR
640,WAS,DC,20018,US
641,SHA,SHA,200000,CN
642,SHA,SHA,200000,CN
643,CON,CON,0,US
644,SSF,CA,94080,US
645,MOR,NC,27560,US
646,MIL,MI,20132,IT
647,LIS,IL,60532,US
648,HOR,PA,19044,US
649,BEL,WA,98004,US
650,ANT,ANT,7190,TR
651,CON,CON,0,IN
652,ERA,VIZ,48950,ES
653,YAL,YAL,77700,TR
654,MON,CA,93940,US
655,MAD,WI,53715,US
656,CON,CON,0,CA
657,CON,CON,0,TR
658,CON,CON,0,ES
659,MAS,MS,54100,IT
660,CIN,OH,45240,US
661,ARN,IST,34275,TR
662,FOX,MA,2035,US
663,CON,CON,0,US
664,BOI,ID,83716,US
665,LOW,AR,72745,US
666,TIJ,BC,22260,MX
667,MV,CA,94043,US
668,CON,CON,0,IN
669,CON,CON,0,IN
670,GOL,CO,80401,US
671,BUR,BUR,9004,ES
672,ATL,GA,30313,US
673,BRA,KY,40108,US
674,BIE,BI,13900,IT
675,SC,JIA,215123,CN
676,AD,AE,0,AE
677,ALC,MAD,28108,ES
678,BRO,OR,97415,US
679,VA,RS,0,BR
680,CHA,IL,61820,US
681,FAI,CT,6824,US
682,DEL,DEL,110003,IN
683,FW,TX,76177,US
684,CON,CON,0,US
685,LA,CA,90017,US
686,ARN,IST,34277,TR
687,IZM,KOC,41310,TR
688,IZM,KOC,41310,TR
689,ORH,BUR,16800,TR
690,ORH,BUR,16800,TR
691,SUR,BC,0,CA
692,SUR,BC,0,CA
693,MON,QC,0,CA
694,DUB,AE,111010,AE
695,CON,CON,0,US
696,BOS,MA,2210,US
697,SHA,SHA,201112,CN
698,SHA,SHA,201112,CN
699,BUR,BUR,16245,TR
700,SP,SP,0,BR
701,SHA,SHA,201112,CN
702,SHA,SHA,201112,CN
703,SHA,SHA,201112,CN
704,SHA,SHA,201112,CN
705,SEO,KYO,46138,KR
706,GR,MI,49507,US
707,OTT,ON,0,CA
708,OTT,ON,0,CA
709,CLE,FL,33763,US
710,PP,FL,33781,US
711,CON,CON,0,US
712,AD,AE,54115,AE
713,TAM,FL,33610,US
714,NY,NY,10022,US
715,CON,CON,0,IN
716,CON,CON,0,IN
717,CON,CON,0,US
718,BR,MI,49307,US
719,CON,CON,0,IN
720,ELW,IL,60421,US
721,CON,CON,0,IN
722,CON,CON,0,CN
723,PC,FL,32164,US
724,MOB,AL,36615,US
725,PV,CA,90094,US
726,MOB,AL,36615,US
727,MOB,AL,36615,US
728,CAN,CAN,17100,TR
729,HOU,TX,77030,US
730,SD,CA,92101,US
731,CON,CON,0,IT
732,DUR,WB,713201,IN
733,BAR,BCN,8011,ES
734,SD,CA,92123,US
735,KOC,KER,682303,IN
736,PYE,KYO,17786,KR
737,MUN,GUJ,370421,IN
738,CHI,CHI,31415,MX
739,HAN,NH,3755,US
740,LO,OR,97035,US
741,POR,OR,97035,US
742,PUN,MAH,411057,IN
743,DUB,AE,0,AE
744,RIC,WA,99354,US
745,PR,IL,60068,US
746,PUN,MAH,411057,IN
747,CON,CON,0,IN
748,HOL,MI,49424,US
749,CON,CON,0,IN
750,CON,CON,0,US
751,CON,CON,0,TR
752,KC,MO,64120,US
753,IST,IST,34520,TR
754,CON,CON,0,US
755,ALC,MAD,28108,ES
756,WIL,NC,28405,US
757,BAR,BCN,8006,ES
758,MAD,MAD,28052,ES
759,MON,QC,0,CA
760,MON,QC,0,CA
761,MON,QC,0,CA
762,ELW,IL,60421,US
763,SP,SP,0,BR
764,SP,SP,0,BR
765,IZM,IZM,35860,TR
766,IST,IST,34768,TR
767,CON,CON,0,IT
768,DEN,CO,80238,US
769,CON,CON,0,MX
770,CON,CON,0,CN
771,CON,CON,0,IN
772,SV,WA,99016,US
773,CC,MD,20815,US
774,VIG,VR,37068,IT
775,QUE,QRO,76223,MX
776,SUZ,JIA,215126,CN
777,SUZ,JIA,215126,CN
778,SUZ,JIA,215126,CN
779,SCDV,BCN,8173,ES
780,CON,CON,0,CA
781,CON,CON,0,CA
782,CON,CON,0,CA
783,CON,CON,0,CA
784,CON,CON,0,CA
785,CON,CON,0,CA
786,QUE,QRO,76223,MX
787,DUB,AE,0,AE
788,SP,SP,0,BR
789,DEV,MA,1434,US
790,SEO,SOU,3738,KR
791,ND,DEL,110021,IN
792,AUS,TX,78746,US
793,VIC,BC,0,CA
794,BEA,CA,92223,US
795,ORA,TN,602105,IN
796,WEL,MA,2481,US
797,ZG,JIA,215600,CN
798,MOR,NC,27560,US
799,MOR,NC,27560,US
800,LM,FL,32746,US
801,CHI,IL,60601,US
802,ATL,GA,30305,US
803,PAS,CA,91109,US
804,BAR,SP,0,BR
805,MAD,MAD,28032,ES
806,MAD,MAD,28032,ES
807,PDA,MAD,28224,ES
808,WIL,NC,28401,US
809,280,MAD,28010,ES
810,VAU,QC,0,CA
811,PLE,CA,94566,US
812,TIR,TN,641602,IN
813,CHE,SIC,610000,CN
814,CHE,SIC,610000,CN
815,SAT,MAH,412802,IN
816,KUN,JIA,215333,CN
817,KUN,JIA,215300,CN
818,BRA,DF,0,BR
819,SJDC,SP,0,BR
820,TAM,FL,33607,US
821,TAM,FL,33607,US
822,TAM,FL,33607,US
823,TAM,FL,33607,US
824,TAM,FL,33607,US
825,CHE,SIC,610000,CN
826,CHE,SIC,610000,CN
827,CHA,JIA,215500,CN
828,CHA,JIA,215500,CN
829,GUR,HAR,122101,IN
830,TIA,TIA,300162,CN
831,MAD,MAD,28001,ES
832,CHE,CHŽ,28356,KR
833,GUA,GUA,510900,CN
834,HEF,ANH,230071,CN
835,BEI,BEI,100039,CN
836,BEI,BEI,100005,CN
837,BEI,BEI,100039,CN
838,CHI,IL,60654,US
839,CB,NL,0,CA
840,CHA,JIA,213100,CN
841,TIA,TIA,300450,CN
842,TIA,TIA,300450,CN
843,SHA,SHA,201107,CN
844,YAL,YAL,77600,TR
845,SHA,SHA,201401,CN
846,SHA,SHA,201401,CN
847,NOI,UP,201301,IN
848,NOI,UP,201301,IN
849,COI,TN,641037,IN
850,HAN,ZHE,311201,CN
851,TOR,ON,0,CA
852,KAH,K.M,46000,TR
853,IZM,IZM,35210,TR
854,TOR,ON,0,CA
855,CHI,IL,60661,US
856,BAT,BAT,72020,TR
857,NY,NY,10001,US
858,BEI,BEI,100020,CN
859,BAR,BCN,8029,ES
860,SD,CA,92121,US
861,CON,CON,0,TR
862,ELA,ELA,23180,TR
863,SD,CA,92123,US
864,SD,CA,92123,US
865,SD,CA,92123,US
866,CON,CON,0,IN
867,HK,HK,0,HK
868,SHA,SHA,201313,CN
869,NY,NY,10001,US
870,CAM,ON,0,CA
871,SOR,SP,0,BR
872,YON,KYO,16801,KR
873,SHA,SHA,200090,CN
874,IST,IST,34360,TR
875,CHA,IL,60410,US
876,MAD,AL,35758,US
877,PEN,FL,32514,US
878,HYD,TG,500046,IN
879,AB,MI,20864,IT
880,ATL,GA,30318,US
881,CHI,IL,60605,US
882,XNA,XNA,71799,CN
883,NY,NY,10010,US
884,PHI,PA,19103,US
885,SUZ,JIA,215121,CN
886,WAS,DC,20037,US
887,CON,CON,0,CN
888,SP,SP,0,BR
889,CON,CON,0,IT
890,CON,CON,0,IT
891,DEN,CO,80202,US
892,CI,MEX,54769,MX
893,EDLB,BCN,8950,ES
894,SEO,SOU,6060,KR
895,SPGG,NL,66265,MX
896,SPGG,NL,66265,MX
897,SPGG,NL,66267,MX
898,SPGG,NL,66267,MX
899,SPGG,NL,66260,MX
900,NY,NY,10001,US
901,NY,NY,10012,US
902,MIS,ON,0,CA
903,SP,SP,0,BR
904,CON,CON,0,IN
905,PAL,RAJ,306701,IN
906,CON,CON,0,IN
907,MIL,MI,20124,IT
908,NY,NY,10011,US
909,SP,SP,0,BR
910,SP,SP,0,BR
911,SP,SP,0,BR
912,CON,CON,0,IT
913,SHA,SHA,200135,CN
914,NIN,ZHE,200000,CN
915,NIN,ZHE,200000,CN
916,NIN,ZHE,200000,CN
917,NIN,ZHE,200000,CN
918,HEF,ANH,200000,CN
919,HEF,ANH,200000,CN
920,HEF,ANH,200000,CN
921,HEF,ANH,200000,CN
922,HEF,ANH,200000,CN
923,GBN,UP,201301,IN
924,SF,CA,94111,US
925,SEO,SOU,7325,KR
926,DUB,AE,393304,AE
927,VAN,BC,0,CA
928,CDM,DF,11000,MX
929,MC,DF,6500,MX
930,BEI,BEI,100033,CN
931,CHO,CHO,400000,CN
932,SP,SP,0,BR
933,GUR,HAR,122002,IN
934,GUR,HAR,122002,IN
935,GUR,HAR,122002,IN
936,GUR,HAR,122002,IN
937,GUR,HAR,122003,IN
938,SUZ,JIA,215024,CN
939,GUR,HAR,122002,IN
940,GUR,HAR,122002,IN
941,FAR,HAR,121003,IN
942,MC,DF,11520,MX
943,RES,VA,20190,US
944,GUR,HAR,122101,IN
945,GUR,HAR,122101,IN
946,CHE,TN,600089,IN
947,CON,CON,0,US
948,CHU,CHŽ,33684,KR
949,SHA,SHA,518045,CN
950,HAN,ZHE,310099,CN
951,HAN,ZHE,310099,CN
952,HAN,ZHE,310099,CN
953,HK,HK,0,HK
954,BAR,BCN,28018,ES
955,HK,HK,0,HK
956,MAD,MAD,28050,ES
957,CEN,HK,0,HK
958,HKI,HK,0,HK
959,TOR,ON,0,CA
960,TOR,ON,0,CA
961,NY,NY,10036,US
962,MUM,MAH,400051,IN
963,NY,NY,10011,US
964,OTT,ON,0,CA
965,IND,IN,46282,US
966,NY,NY,10122,US
967,IRV,TX,75039,US
968,SC,CA,95054,US
969,SC,CA,95054,US
970,PHO,AZ,85020,US
971,AJA,ON,0,CA
972,SP,SP,0,BR
973,MIS,ON,0,CA
974,MIS,ON,0,CA
975,MIS,ON,0,CA
976,MAD,MAD,28014,ES
977,TAE,TAE,43008,KR
978,DAE,TAE,43008,KR
979,CON,CON,0,IN
980,SAI,QC,0,CA
981,MON,QC,0,CA
982,WES,QC,0,CA
983,LPDGC,LP,35002,ES
984,POR,OR,97217,US
985,NY,NY,10022,US
986,WUH,HUB,430056,CN
987,WUH,HUB,430056,CN
988,WUH,HUB,430056,CN
989,CON,CON,0,IN
990,FAI,VA,22033,US
991,FAI,VA,22033,US
992,PUN,MAH,411057,IN
993,WD,DC,20006,US
994,WD,DC,20006,US
995,WD,DC,20006,US
996,EDM,AB,0,CA
997,OTT,ON,0,CA
998,CON,CON,0,IT
999,KER,NC,27284,US
1000,CON,CON,0,IT
1001,MAD,MAD,28042,ES
1002,MAD,MAD,28042,ES
1003,HP,NC,27260,US
1004,SS,GA,30342,US
1005,CAL,AB,0,CA
1006,COR,COR,19040,TR
1007,RDJ,RJ,0,BR
1008,CHE,SIC,610000,CN
1009,DUB,AE,888888,AE
1010,HK,HK,0,HK
1011,HK,HK,0,HK
1012,HK,HK,0,HK
1013,HIL,OR,97124,US
1014,HK,HK,0,HK
1015,HK,HK,0,HK
1016,HK,HK,0,HK
1017,"V,TK",KAR,572138,IN
1018,HIL,OR,97124,US
1019,NEE,MA,2494,US
1020,BEI,BEI,100025,CN
1021,CON,CON,0,IN
1022,HOU,TX,77079,US
1023,HOU,TX,77079,US
1024,DAL,TX,75205,US
1025,SUR,GUJ,395004,IN
1026,VAN,BC,0,CA
1027,MUM,MAH,400096,IN
1028,SUR,GUJ,394510,IN
1029,SUR,GUJ,395006,IN
1030,CON,CON,0,US
1031,BEN,KAR,561205,IN
1032,COI,TN,641017,IN
1033,LV,NV,89119,US
1034,MUM,MAH,400093,IN
1035,KAR,TN,639207,IN
1036,COM,CA,90221,US
1037,KOK,WB,700091,IN
1038,ROM,RM,173,IT
1039,ROM,RM,173,IT
1040,SP,SP,0,BR
1041,SP,SP,0,BR
1042,CLE,OH,44102,US
1043,CON,CON,0,IN
1044,CON,CON,0,IN
1045,CON,CON,0,IN
1046,HKI,HK,999077,HK
1047,DUB,AE,0,AE
1048,DUB,AE,0,AE
1049,DUB,AE,0,AE
1050,CHI,IL,60601,US
1051,MCR,PR,0,BR
1052,UC,UC,12000,CN
1053,CON,CON,0,US
1054,MON,QC,0,CA
1055,MIL,MI,20152,IT
1056,SP,SP,0,BR
1057,OTT,ON,0,CA
1058,SB,CA,93106,US
1059,CON,CON,0,US
1060,SHA,SHA,201210,CN
1061,CON,CON,0,US
1062,MC,DF,11580,MX
1063,CON,CON,0,CA
1064,IST,IST,34330,TR
1065,KD,TN,635107,IN
1066,NY,NY,10022,US
1067,NY,NY,10017,US
1068,NY,NY,10005,US
1069,NY,NY,10019,US
1070,NY,NY,10019,US
1071,NY,NY,10014,US
1072,SEO,SOU,4513,KR
1073,NY,NY,10022,US
1074,AD,AE,0,AE
1075,MIL,MI,20126,IT
1076,PUN,MAH,410501,IN
1077,FC,GUA,528139,CN
1078,FC,GUA,528139,CN
1079,FC,GUA,528139,CN
1080,FC,GUA,528139,CN
1081,FC,GUA,528139,CN
1082,TAR,TAR,43840,ES
1083,BEI,BEI,101312,CN
1084,SCDV,BCN,8173,ES
1085,MAD,MAD,28033,ES
1086,MAD,MAD,28050,ES
1087,BEI,BEI,100738,CN
1088,CON,CON,0,IN
1089,GAI,MD,20878,US
1090,MIL,MI,20121,IT
1091,APO,NL,66603,MX
1092,BEI,BEI,100029,CN
1093,SEO,KYO,13591,KR
1094,CON,CON,0,IN
1095,BHA,GUJ,392220,IN
1096,NAN,JIA,226010,CN
1097,CON,CON,0,IN
1098,CON,CON,0,IN
1099,XIA,HUB,441058,CN
1100,CON,CON,0,ES
1101,CHE,TN,600100,IN
1102,CDS,RS,0,BR
1103,RDJ,RJ,0,BR
1104,VAD,GUJ,391410,IN
1105,MUM,MAH,400814,IN
1106,MUM,MAH,421503,IN
1107,CUR,PR,0,BR
1108,BAR,BCN,8018,ES
1109,TIR,TN,641606,IN
1110,HOS,TN,635126,IN
1111,SUL,TN,641402,IN
1112,MAD,TN,625012,IN
1113,TRI,TN,620004,IN
1114,PUN,MAH,412101,IN
1115,KAN,MAH,452016,IN
1116,RAJ,CHH,491441,IN
1117,BHI,CHH,490025,IN
1118,YAV,MAH,445002,IN
1119,PAT,GUJ,384290,IN
1120,ANK,ANK,6790,TR
1121,ANK,ANK,6200,TR
1122,ANT,ANT,7010,TR
1123,IST,IST,34662,TR
1124,IST,IST,34145,TR
1125,IST,IST,34307,TR
1126,IST,IST,34752,TR
1127,IST,IST,34500,TR
1128,IST,IST,34912,TR
1129,MUG,MUG,48400,TR
1130,ORD,ORD,52200,TR
1131,BAN,KAR,561203,IN
1132,PAL,GUJ,385001,IN
1133,MAN,KAR,575001,IN
1134,AHM,GUJ,382330,IN
1135,BHA,GUJ,392001,IN
1136,SN,GUJ,363030,IN
1137,MIL,MI,20121,IT
1138,DUB,AE,49776,AE
1139,QB,HK,0,HK
1140,BH,CA,90212,US
1141,MIL,MI,20121,IT
1142,WAS,DC,20005,US
1143,JAJ,ORI,755026,IN
1144,PB,SC,0,BR
1145,CON,CON,0,IN
1146,CON,CON,0,IN
1147,CON,CON,0,IN
1148,CON,CON,0,IN
1149,CON,CON,0,IN
1150,CON,CON,0,IN
1151,CON,CON,0,US
1152,CON,CON,0,IT
1153,KOL,MAH,416216,IN
1154,SHA,SHA,200023,CN
1155,CON,CON,0,IN
1156,CON,CON,0,IN
1157,PAT,PUN,147001,IN
1158,CON,CON,0,IN
1159,CON,CON,0,IN
1160,FOS,GUA,528500,CN
1161,BRA,FL,34209,US
1162,SCDV,BCN,8174,ES
1163,BAR,BCN,8014,ES
1164,APO,NL,66600,MX
1165,MIN,MN,55401,US
1166,JIA,ZHE,314011,CN
1167,CHI,IL,60642,US
1168,CAR,CA,92008,US
1169,SD,CA,92121,US
1170,SD,CA,92121,US
1171,SD,CA,92121,US
1172,SSSD,AP,515261,IN
1173,ORL,FL,32801,US
1174,ORL,FL,32801,US
1175,SEO,SOU,4520,KR
1176,BEN,KAR,560066,IN
1177,DON,GUA,523000,CN
1178,DON,GUA,523000,CN
1179,DON,GUA,523000,CN
1180,DON,GUA,523000,CN
1181,DUB,AE,0,AE
1182,CON,CON,0,ES
1183,COL,MD,21044,US
1184,BAN,KAR,560099,IN
1185,SP,SP,0,BR
1186,HK,HK,0,HK
1187,SHA,SHA,200120,CN
1188,SUZ,JIA,215028,CN
1189,SUZ,JIA,215028,CN
1190,SHA,SHA,200000,CN
1191,MUM,MAH,400705,IN
1192,CHE,SIC,610101,CN
1193,CHE,SIC,610100,CN
1194,CHE,SIC,610100,CN
1195,CDL,BCN,8940,ES
1196,KOL,WB,700028,IN
1197,KOL,WB,700054,IN
1198,KOL,WB,700033,IN
1199,KOL,WB,700053,IN
1200,KOL,WB,743127,IN
1201,KOL,WB,700002,IN
1202,RIS,WB,712248,IN
1203,CHE,SIC,610000,CN
1204,SP,SP,0,BR
1205,ROM,RM,185,IT
1206,AD,AE,0,AE
1207,NV,SC,0,BR
1208,CHA,JIA,213001,CN
1209,GUA,GUA,511400,CN
1210,KOL,WB,700017,IN
1211,BEN,KAR,560037,IN
1212,SP,SP,0,BR
1213,SP,SP,0,BR
1214,RDJ,RJ,0,BR
1215,RDJ,RJ,0,BR
1216,SHA,SHA,200120,CN
1217,JIA,ZHE,314011,CN
1218,RDJ,RJ,0,BR
1219,BAR,BCN,8034,ES
1220,MED,MA,2155,US
1221,SP,SP,0,BR
1222,DUB,AE,17000,AE
1223,SHA,SHA,200120,CN
1224,MC,DF,6600,MX
1225,SHA,SHA,201604,CN
1226,CON,CON,0,IN
1227,CON,CON,0,IN
1228,JAN,SP,0,BR
1229,SP,SP,0,BR
1230,HOW,WB,711202,IN
1231,FC,VA,22042,US
1232,BAN,KAR,560001,IN
1233,LV,NV,89115,US
1234,KOL,WB,700088,IN
1235,HK,HK,0,HK
1236,HK,NT,0,HK
1237,BEI,BEI,101300,CN
1238,SUZ,JIA,215133,CN
1239,SEO,SOU,4637,KR
1240,BEI,BEI,100027,CN
1241,SHA,SHA,200030,CN
1242,QUE,RJ,0,BR
1243,CAJ,SP,0,BR
1244,ARU,SP,0,BR
1245,CON,CON,0,KR
1246,SEO,KYO,13487,KR
1247,SEO,KYO,13487,KR
1248,SEO,SOU,3173,KR
1249,RAL,NC,27607,US
1250,RAL,NC,27607,US
1251,CHA,MAH,442406,IN
1252,JAI,RAJ,322242,IN
1253,BEN,KAR,560017,IN
1254,BEN,KAR,560071,IN
1255,MIA,FL,33126,US
1256,MIA,FL,33126,US
1257,MIA,FL,33126,US
1258,SHA,SHA,201100,CN
1259,PAR,PR,43122,IT
1260,TUR,TO,10153,IT
1261,TUR,TO,10154,IT
1262,IST,IST,34430,TR
1263,VIM,MI,20090,IT
1264,VIM,MI,20055,IT
1265,WAS,DC,20037,US
1266,BEI,BEI,100004,CN
1267,BEI,BEI,102629,CN
1268,BEI,BEI,102629,CN
1269,BEI,BEI,102629,CN
1270,BEI,BEI,102629,CN
1271,BEI,BEI,102629,CN
1272,BEI,BEI,102629,CN
1273,BEI,BEI,102629,CN
1274,BEI,BEI,102629,CN
1275,BEI,BEI,102629,CN
1276,BEI,BEI,102629,CN
1277,BEI,BEI,102629,CN
1278,BEI,BEI,102629,CN
1279,BEI,BEI,102629,CN
1280,BEI,BEI,102629,CN
1281,BEI,BEI,102629,CN
1282,BEI,BEI,102629,CN
1283,BEI,BEI,102629,CN
1284,SEO,SOU,6620,KR
1285,ETX,VIZ,48450,ES
1286,CON,CON,0,AE
1287,HK,HK,0,HK
1288,SC,AP,517646,IN
1289,GUR,HAR,122002,IN
1290,SEO,SOU,6253,KR
1291,IST,IST,34734,TR
1292,GD,ORI,761020,IN
1293,CON,CON,0,IN
1294,BEN,KAR,560093,IN
1295,CON,CON,0,IN
1296,BEN,KAR,560093,IN
1297,BEN,KAR,560093,IN
1298,BEN,KAR,560093,IN
1299,BEN,KAR,560093,IN
1300,TOK,TOK,60100,TR
1301,BOS,MA,2110,US
1302,NY,NY,10017,US
1303,BEI,BEI,100000,CN
1304,CON,CON,0,US
1305,SJDR,QRO,76820,MX
1306,HK,HK,0,HK
1307,HK,HK,0,HK
1308,CON,CON,0,ES
1309,FAR,HAR,121003,IN
1310,GUR,HAR,122101,IN
1311,DUB,AE,17000,AE
1312,SUZ,JIA,215006,CN
1313,IST,IST,34303,TR
1314,WAS,DC,20006,US
1315,CON,CON,0,IN
1316,MG,FL,33056,US
1317,AD,AE,0,AE
1318,AD,AE,0,AE
1319,AD,AE,0,AE
1320,NY,NY,10010,US
1321,CHI,IL,60605,US
1322,AD,AE,0,AE
1323,MUM,MAH,400615,IN
1324,AD,AE,0,AE
1325,AD,AE,0,AE
1326,AD,AE,0,AE
1327,MAD,MAD,28004,ES
1328,MAD,MAD,28004,ES
1329,MAD,MAD,28004,ES
1330,MAD,MAD,28004,ES
1331,AD,AE,0,AE
1332,HUI,GUA,516003,CN
1333,SEO,SOU,4323,KR
1334,DUB,AE,0,AE
1335,DUB,AE,0,AE
1336,DUB,AE,0,AE
1337,DUB,AE,0,AE
1338,DUB,AE,0,AE
1339,DUB,AE,0,AE
1340,DUB,AE,0,AE
1341,BEI,BEI,100006,CN
1342,AD,AE,0,AE
1343,AD,AE,0,AE
1344,AD,AE,0,AE
1345,CON,CON,0,US
1346,AA,AE,0,AE
1347,COI,TN,641035,IN
1348,SP,SP,0,BR
1349,HK,NT,0,HK
1350,NY,NY,10014,US
1351,SHE,GUA,518000,CN
1352,NY,NY,10022,US
1353,GUR,HAR,122002,IN
1354,MAD,MAD,28050,ES
1355,SP,SP,0,BR
1356,SF,CA,94103,US
1357,MAD,MAD,28034,ES
1358,DEN,CO,80202,US
1359,MAD,MAD,28001,ES
1360,MUM,MAH,400063,IN
1361,MIL,MI,20121,IT
1362,SHA,SHA,200000,CN
1363,GRA,GRA,18004,ES
1364,LDL,BCN,8904,ES
1365,LDL,BCN,8903,ES
1366,MAD,MAD,28032,ES
1367,MAD,MAD,28032,ES
1368,NEW,MA,2458,US
1369,FAI,VA,22033,US
1370,PIT,PA,15206,US
1371,CHA,NC,28217,US
1372,CHA,NC,28217,US
1373,SD,CA,92123,US
1374,CHE,MA,1824,US
1375,WAS,DC,20004,US
1376,NOR,VA,23502,US
1377,SJ,CA,95134,US
1378,BEN,KAR,560029,IN
1379,BEN,KAR,560029,IN
1380,BEN,KAR,560029,IN
1381,BEN,KAR,560042,IN
1382,HAR,HAR,150000,CN
1383,HOH,HOH,10000,CN
1384,IBI,BAL,0,ES
1385,CON,CON,0,ES
1386,HAN,ZHE,310018,CN
1387,HAN,ZHE,310018,CN
1388,HAN,ZHE,310018,CN
1389,HAN,ZHE,310018,CN
1390,HAN,ZHE,310018,CN
1391,HAN,ZHE,310018,CN
1392,HAN,ZHE,310018,CN
1393,HAN,ZHE,310018,CN
1394,HAN,ZHE,310018,CN
1395,HAN,ZHE,310018,CN
1396,ALB,NM,87109,US
1397,IST,IST,34830,TR
1398,KOC,KOC,41420,TR
1399,NAN,JIA,210000,CN
1400,NAN,JIA,210000,CN
1401,CON,CON,0,IN
1402,CON,CON,0,IN
1403,IST,IST,34353,TR
1404,BEN,KAR,560103,IN
1405,BEN,KAR,560025,IN
1406,BEN,KAR,560103,IN
1407,AD,AE,0,AE
1408,HYD,TG,500081,IN
1409,MAD,MAD,28050,ES
1410,NY,NY,10172,US
1411,BEN,KAR,560103,IN
1412,CON,CON,0,IN
1413,CON,CON,0,IN
1414,CON,CON,0,IN
1415,ERO,TN,638313,IN
1416,ATL,GA,30327,US
1417,BEN,KAR,560032,IN
1418,DUB,AE,0,AE
1419,SHA,AE,0,AE
1420,DUB,AE,0,AE
1421,DUB,AE,0,AE
1422,SHA,SHA,200052,CN
1423,SHA,SHA,200001,CN
1424,AD,AE,0,AE
1425,SJ,CA,95128,US
1426,CON,CON,0,IN
1427,NOI,UP,201309,IN
1428,WD,DC,20006,US
1429,WD,DC,20006,US
1430,TOR,ON,0,CA
1431,AD,AE,0,AE
1432,CON,CON,0,CA
1433,AD,AE,0,AE
1434,PUN,MAH,411062,IN
1435,PUN,MAH,411062,IN
1436,TAM,FL,33618,US
1437,IG,KYO,17314,KR
1438,COR,MI,20032,IT
1439,HK,HK,999077,HK
1440,ALC,MAD,28108,ES
1441,CON,CON,0,IN
1442,PAR,PR,43122,IT
1443,BLO,CT,6002,US
1444,SHA,SHA,200120,CN
1445,SUZ,JIA,215021,CN
1446,SUZ,JIA,215021,CN
1447,SUZ,JIA,215021,CN
1448,SUZ,JIA,215021,CN
1449,SUZ,JIA,215021,CN
1450,SUZ,JIA,215021,CN
1451,COL,PR,0,BR
1452,CON,CON,0,IN
1453,CON,CON,0,IN
1454,PDA,MAD,28224,ES
1455,PDA,MAD,28224,ES
1456,PDA,MAD,28224,ES
1457,MIL,MI,20158,IT
1458,MIL,MI,20158,IT
1459,POR,OR,97214,US
1460,CON,CON,0,IT
1461,CLE,OH,44106,US
1462,SHA,SHA,200124,CN
1463,PDL,BCN,8820,ES
1464,PDL,BCN,8820,ES
1465,BAR,BCN,8018,ES
1466,MOO,CA,93021,US
1467,NY,NY,10017,US
1468,CON,CON,0,IN
1469,CON,CON,0,IN
1470,SAR,FL,34234,US
1471,SHA,SHA,201100,CN
1472,GUR,HAR,122018,IN
1473,DUB,AE,0,AE
1474,SHA,AE,0,AE
1475,BAR,BCN,8019,ES
1476,MAD,MAD,28035,ES
1477,KRI,TN,635110,IN
1478,GUR,HAR,122051,IN
1479,GUR,HAR,122012,IN
1480,GUR,HAR,122018,IN
1481,GUR,HAR,122018,IN
1482,GUR,HAR,122012,IN
1483,CON,CON,0,IN
1484,ATI,SP,0,BR
1485,SHA,SHA,200021,CN
1486,HK,HK,0,HK
1487,AUS,TX,78705,US
1488,GUA,GUA,510335,CN
1489,CON,CON,0,IT
1490,SD,CA,92121,US
1491,SDP,SP,0,BR
1492,SHA,SHA,200086,CN
1493,CON,CON,0,CN
1494,BEI,BEI,100020,CN
1495,SEO,SOU,4539,KR
1496,AD,AE,0,AE
1497,GUR,HAR,122413,IN
1498,SHA,SHA,200120,CN
1499,SHA,SHA,200030,CN
1500,SHA,SHA,200232,CN
1501,GUR,HAR,122413,IN
1502,PHI,PA,19103,US
1503,MIA,FL,33136,US
1504,NAN,JIA,210000,CN
1505,NAN,JIA,210000,CN
1506,SHI,SHI,50599,CN
1507,SHI,SHI,50599,CN
1508,SHI,SHI,50599,CN
1509,SHI,SHI,50599,CN
1510,CHA,CHA,130114,CN
1511,CHA,CHA,130114,CN
1512,CHA,CHA,130114,CN
1513,CHA,CHA,130114,CN
1514,CHA,CHA,130114,CN
1515,CHA,CHA,130114,CN
1516,CHA,CHA,130114,CN
1517,CHA,CHA,130114,CN
1518,JIA,ZHE,314399,CN
1519,CON,CON,0,CN
1520,JIA,ZHE,314399,CN
1521,JIA,ZHE,314399,CN
1522,QIN,SHA,266200,CN
1523,QIN,SHA,314399,CN
1524,QIN,SHA,314399,CN
1525,JIA,ZHE,314399,CN
1526,JIA,ZHE,314399,CN
1527,JIA,ZHE,314399,CN
1528,NAN,SIC,637000,CN
1529,NAN,SIC,637000,CN
1530,NAN,SIC,637000,CN
1531,JIA,ZHE,637000,CN
1532,JIA,ZHE,314399,CN
1533,JIA,ZHE,314399,CN
1534,JIA,ZHE,314399,CN
1535,CHA,HUN,410221,CN
1536,CHA,HUN,410221,CN
1537,CHA,HUN,410221,CN
1538,CHA,HUN,410221,CN
1539,CHE,SIC,610207,CN
1540,XIA,SHA,710086,CN
1541,XIA,SHA,710086,CN
1542,XIA,SHA,710086,CN
1543,HAE,HAE,150821,CN
1544,HAE,HAE,150821,CN
1545,HAR,HAR,150821,CN
1546,HAR,HAR,150821,CN
1547,ZHO,GUA,528455,CN
1548,CON,CON,0,CN
1549,CHO,CHO,402246,CN
1550,CHO,CHO,402246,CN
1551,GUI,GUI,551206,CN
1552,GUI,GUI,551206,CN
1553,GUI,GUI,551206,CN
1554,JIN,SHA,250107,CN
1555,JIN,SHA,250107,CN
1556,JIN,SHA,250107,CN
1557,JIN,SHA,250107,CN
1558,NAN,JIA,330114,CN
1559,NAN,JIA,330114,CN
1560,NAN,JIA,330114,CN
1561,QIN,SHA,266499,CN
1562,QIN,SHA,266499,CN
1563,QIN,SHA,266499,CN
1564,TIA,TIA,301799,CN
1565,TIA,TIA,301799,CN
1566,SHE,SHE,110027,CN
1567,SHE,SHE,110027,CN
1568,TIA,TIA,300385,CN
1569,TIA,TIA,300385,CN
1570,WUH,HUB,430413,CN
1571,WUH,HUB,430413,CN
1572,WUH,HUB,430413,CN
1573,WUH,HUB,430413,CN
1574,XIA,SHA,712033,CN
1575,XIA,SHA,712033,CN
1576,XIA,SHA,712033,CN
1577,XIA,SHA,712033,CN
1578,XIA,SHA,712033,CN
1579,XIA,SHA,712033,CN
1580,YAN,SHA,265509,CN
1581,YAN,SHA,265509,CN
1582,YAN,SHA,265509,CN
1583,YAN,SHA,265509,CN
1584,ZHE,HEN,451472,CN
1585,CON,CON,0,CN
1586,ZHE,HEN,451472,CN
1587,CHK,HK,0,HK
1588,SHA,SHA,200002,CN
1589,HK,HK,0,HK
1590,DUR,CHH,491001,IN
1591,VIJ,AP,520010,IN
1592,BHA,GUJ,393001,IN
1593,SUR,GUJ,394210,IN
1594,SUR,GUJ,394107,IN
1595,NAV,GUJ,396445,IN
1596,FAR,HAR,121004,IN
1597,CON,CON,0,IN
1598,MAN,MP,458001,IN
1599,IND,MP,452020,IN
1600,PIT,MP,454775,IN
1601,JAL,PUN,144012,IN
1602,JAI,RAJ,302017,IN
1603,GHA,UP,201005,IN
1604,SHA,AE,0,AE
1605,GOD,GUJ,389001,IN
1606,NAV,GUJ,396325,IN
1607,AD,AE,0,AE
1608,AHM,GUJ,382110,IN
1609,NAS,MAH,422006,IN
1610,JAI,RAJ,302012,IN
1611,GN,UP,201310,IN
1612,KAI,HEN,475000,CN
1613,KAI,HEN,475000,CN
1614,KAI,HEN,475000,CN
1615,KAI,HEN,475000,CN
1616,KAI,HEN,475000,CN
1617,KAI,HEN,475000,CN
1618,KAI,HEN,475000,CN
1619,SUR,GUJ,395010,IN
1620,IND,MP,453331,IN
1621,MG,PUN,147301,IN
1622,GUL,KAR,585104,IN
1623,NAN,MAH,425412,IN
1624,MAN,KAR,575006,IN
1625,NAS,MAH,422010,IN
1626,DHU,MAH,424006,IN
1627,PAN,MAH,410221,IN
1628,UDU,KAR,576102,IN
1629,THA,MAH,421103,IN
1630,WAR,MAH,442001,IN
1631,SEO,SOU,4637,KR
1632,CHE,TN,600035,IN
1633,PAS,CA,91109,US
1634,SHA,SHA,200001,CN
1635,CON,CON,0,IN
1636,CON,CON,0,IN
1637,HAN,ZHE,310006,CN
1638,CON,CON,0,IN
1639,MAN,TG,504209,IN
1640,CON,CON,0,IN
1641,CON,CON,0,IN
1642,CON,CON,0,IN
1643,SHA,SHA,200030,CN
1644,CON,CON,0,IN
1645,CON,CON,0,IN
1646,NAG,MAH,440037,IN
1647,AD,AE,0,AE
1648,MAL,BAL,7120,ES
1649,RDJ,RJ,0,BR
1650,FOS,GUA,528143,CN
1651,FOS,GUA,528143,CN
1652,FOS,GUA,528143,CN
1653,FOS,GUA,528143,CN
1654,FOS,GUA,528143,CN
1655,FOS,GUA,528143,CN
1656,FOS,GUA,528143,CN
1657,TIA,TIA,301508,CN
1658,TIA,TIA,301508,CN
1659,TIA,TIA,301508,CN
1660,TIA,TIA,301508,CN
1661,TIA,TIA,301508,CN
1662,TIA,TIA,301508,CN
1663,TIA,TIA,301508,CN
1664,TIA,TIA,301508,CN
1665,TIA,TIA,301508,CN
1666,TIA,TIA,301508,CN
1667,TIA,TIA,301508,CN
1668,GUA,GUA,510890,CN
1669,GUA,GUA,510890,CN
1670,GUA,GUA,510890,CN
1671,GUA,GUA,510890,CN
1672,GUA,GUA,510890,CN
1673,GUA,GUA,510890,CN
1674,GUA,GUA,510890,CN
1675,GUA,GUA,510890,CN
1676,GUA,GUA,510890,CN
1677,GUA,GUA,510890,CN
1678,GUA,GUA,510890,CN
1679,GUA,GUA,510890,CN
1680,GUA,GUA,510890,CN
1681,GUA,GUA,510890,CN
1682,GUA,GUA,510890,CN
1683,GUA,GUA,510890,CN
1684,GUA,GUA,510890,CN
1685,GUA,GUA,510890,CN
1686,GUA,GUA,510890,CN
1687,GUA,GUA,510890,CN
1688,GUA,GUA,510890,CN
1689,WEN,ZHE,325025,CN
1690,WEN,ZHE,325025,CN
1691,WEN,ZHE,325025,CN
1692,WEN,ZHE,325025,CN
1693,WEN,ZHE,325025,CN
1694,WEN,ZHE,325025,CN
1695,LR,MAD,28232,ES
1696,TIA,TIA,300000,CN
1697,TIA,TIA,300000,CN
1698,TIA,TIA,300000,CN
1699,CON,CON,0,CN
1700,CON,CON,0,CN
1701,CON,CON,0,CN
1702,CON,CON,0,CN
1703,ZHE,HEN,153000,CN
1704,ZHE,HEN,153000,CN
1705,ZHE,HEN,153000,CN
1706,ZHE,HEN,153000,CN
1707,ZHE,HEN,153000,CN
1708,ZHE,HEN,153000,CN
1709,KS,YUN,650212,CN
1710,KS,YUN,650212,CN
1711,KS,YUN,650212,CN
1712,KS,YUN,650212,CN
1713,KS,YUN,650212,CN
1714,WUX,JIA,214201,CN
1715,WUX,JIA,214201,CN
1716,WUX,JIA,214201,CN
1717,WUX,YUN,214201,CN
1718,WUX,JIA,214201,CN
1719,WUX,JIA,214201,CN
1720,CHE,TN,603209,IN
1721,SEO,SOU,4518,KR
1722,BES,IST,34342,TR
1723,CON,CON,0,IN
1724,CHO,CHO,400000,CN
1725,CHE,TN,600130,IN
1726,CHE,TN,600130,IN
1727,CHE,TN,600130,IN
1728,SHA,SHA,200126,CN
1729,SHA,SHA,200126,CN
1730,SHA,SHA,200126,CN
1731,SHA,SHA,200126,CN
1732,SHA,SHA,200126,CN
1733,SHA,SHA,200126,CN
1734,SHA,SHA,200126,CN
1735,SHA,SHA,200126,CN
1736,SHA,SHA,200126,CN
1737,SHA,SHA,200126,CN
1738,SHA,SHA,200126,CN
1739,SHA,SHA,200126,CN
1740,CON,CON,0,IT
1741,CON,CON,0,IN
1742,CHE,TN,600119,IN
1743,CHE,TN,600119,IN
1744,CHE,TN,600119,IN
1745,PUN,MAH,411057,IN
1746,PUN,MAH,411057,IN
1747,SHA,SHA,201206,CN
1748,NY,NY,10019,US
1749,CHE,SIC,610305,CN
1750,CHE,SIC,610305,CN
1751,CHE,SIC,610305,CN
1752,CHE,SIC,610305,CN
1753,CHE,SIC,610305,CN
1754,CHE,SIC,610305,CN
1755,CHE,SIC,610305,CN
1756,CHE,SIC,610305,CN
1757,PAV,PV,27100,IT
1758,HAN,ZHE,310000,CN
1759,MAD,MAD,28050,ES
1760,TOR,ON,0,CA
1761,NY,NY,10022,US
1762,SEO,SOU,6619,KR
1763,WAS,DC,20036,US
1764,SHA,SHA,200120,CN
1765,ROM,RM,185,IT
1766,AND,ALM,4160,ES
1767,ZHE,HEN,451472,CN
1768,ZHE,HEN,451472,CN
1769,BEI,BEI,100032,CN
1770,GUR,HAR,122001,IN
1771,CON,CON,0,IN
1772,NOI,UP,201301,IN
1773,DUB,AE,0,AE
1774,HAN,ZHE,310000,CN
1775,HAN,ZHE,200021,CN
1776,BEI,BEI,100193,CN
1777,CON,CON,0,AE
1778,DUB,AE,0,AE
1779,NAN,JIA,210000,CN
1780,FUJ,AE,0,AE
1781,CHE,SIC,610095,CN
1782,SHA,SHA,200030,CN
1783,GUR,HAR,122002,IN
1784,SD,CA,0,US
1785,CON,CON,0,IT
1786,SHA,SHA,200438,CN
1787,CON,CON,0,IN
1788,GBN,UP,201301,IN
1789,BEY,IST,34435,TR
1790,ND,DEL,110025,IN
1791,AVC,IST,34320,TR
1792,USK,IST,34692,TR
1793,KAR,KON,42030,TR
1794,KT,KLN,0,HK
1795,HK,HK,0,HK
1796,GUA,GUA,511356,CN
1797,GUA,GUA,511356,CN
1798,ARC,TN,38062,IT
1799,PRI,CN,12040,IT
1800,SAV,CN,12038,IT
1801,CON,CON,0,CN
1802,CHE,SIC,610000,CN
1803,CHE,SIC,610000,CN
1804,CHE,SIC,610105,CN
1805,CHE,SIC,610105,CN
1806,CHE,SIC,610105,CN
1807,CHE,SIC,610105,CN
1808,CHE,SIC,610105,CN
1809,XIA,FUJ,361016,CN
1810,DUB,AE,0,AE
1811,HK,HK,0,HK
1812,DUB,AE,0,AE
1813,DUB,AE,0,AE
1814,DUB,AE,0,AE
1815,DUB,AE,0,AE
1816,DUB,AE,0,AE
1817,TOR,ON,0,CA
1818,BEI,BEI,100073,CN
1819,BEI,BEI,100073,CN
1820,SHA,SHA,200136,CN
1821,KUN,JIA,215311,CN
1822,KUN,JIA,215311,CN
1823,KUN,JIA,215311,CN
1824,KUN,JIA,215311,CN
1825,KUN,JIA,215311,CN
1826,CD,CD,100020,CN
1827,SHA,SHA,200062,CN
1828,KOL,KAR,563114,IN
1829,GUA,GUA,511455,CN
1830,SHE,GUA,518066,CN
1831,NAS,TN,37203,US
1832,FUZ,FUJ,350003,CN
1833,SL,MO,63103,US
1834,ND,DEL,110011,IN
1835,CON,CON,0,CN
1836,SEO,SOU,6141,KR
1837,CON,CON,0,IN
1838,BEI,BEI,101318,CN
1839,BEI,BEI,101318,CN
1840,BEI,BEI,101318,CN
1841,BEI,BEI,101318,CN
1842,BEI,BEI,101318,CN
1843,BEI,BEI,101318,CN
1844,BEI,BEI,101318,CN
1845,CON,CON,0,IN
1846,CON,CON,0,IN
1847,CON,CON,0,IN
1848,CON,CON,0,IN
1849,CON,CON,0,IN
1850,NY,NY,10010,US
1851,MAD,MAD,28046,ES
1852,SHA,SHA,200126,CN
1853,BEI,BEI,100085,CN
1854,SHA,SHA,201206,CN
1855,CHA,HUN,410000,CN
1856,NAN,JIA,226017,CN
1857,DUB,AE,5919630,AE
1858,CON,CON,0,IT
1859,SUZ,JIA,215217,CN
1860,SUZ,JIA,215217,CN
1861,SUZ,JIA,215217,CN
1862,KOL,WB,700001,IN
1863,SJDC,SP,0,BR
1864,SOR,SP,0,BR
1865,SP,SP,0,BR
1866,MAD,MAD,28020,ES
1867,GN,UP,201310,IN
1868,NAG,MAH,441108,IN
1869,NAG,MAH,441108,IN
1870,BEN,KAR,562162,IN
1871,MIL,MI,20149,IT
1872,CON,CON,0,ES
1873,CON,CON,0,ES
1874,TC,MAD,28760,ES
1875,TC,MAD,28760,ES
1876,TC,MAD,28760,ES
1877,TC,MAD,28760,ES
1878,TC,MAD,28760,ES
1879,CON,CON,0,ES
1880,CON,CON,0,ES
1881,TC,MAD,28760,ES
1882,TC,MAD,28760,ES
1883,EZH,HUB,436000,CN
1884,EZH,HUB,436000,CN
1885,EZH,HUB,436000,CN
1886,EZH,HUB,436000,CN
1887,TPHK,HK,0,HK
1888,HK,HK,0,HK
1889,LAN,NT,0,HK
1890,CON,CON,0,HK
1891,CON,CON,0,IN
1892,SEO,SOU,7335,KR
1893,SUZ,JIA,215300,CN
1894,SUZ,JIA,215300,CN
1895,MIL,MI,20158,IT
1896,SUZ,JIA,215300,CN
1897,SUZ,JIA,215300,CN
1898,SAR,FL,34233,US
1899,SHA,SHA,200030,CN
1900,MUM,MAH,400079,IN
1901,KOL,WB,700016,IN
1902,SHA,SHA,0,CN
1903,KOL,WB,700119,IN
1904,RDJ,RJ,0,BR
1905,HK,NT,0,HK
1906,DUB,AE,0,AE
1907,DUB,AE,0,AE
1908,DUB,AE,0,AE
1909,MUM,MAH,400049,IN
1910,PUN,MAH,411006,IN
1911,BEI,BEI,100086,CN
1912,TPHK,HK,0,HK
1913,GUA,GUA,510890,CN
1914,GUA,GUA,510890,CN
1915,GUA,GUA,510890,CN
1916,GUA,GUA,510890,CN
1917,BAN,KAR,560037,IN
1918,SHA,SHA,200120,CN
1919,GUA,GUA,510006,CN
1920,MUM,MAH,400013,IN
1921,TST,KLN,0,HK
1922,ZNT,GUA,510623,CN
1923,BAN,KAR,560054,IN
1924,CON,CON,0,IN
1925,CHE,SIC,610000,CN
1926,YEO,KYO,12656,KR
1927,YEO,KYO,12656,KR
1928,INC,INC,22769,KR
1929,NAN,JIA,210005,CN
1930,HK,KLN,0,HK
1931,HK,KLN,0,HK
1932,HK,KLN,0,HK
1933,HK,KLN,0,HK
1934,CON,CON,0,IN
1935,YC,ZHE,315400,CN
1936,YC,ZHE,315400,CN
1937,BEI,BEI,100032,CN
1938,PDA,MAD,28224,ES
1939,CHE,SIC,610213,CN
1940,ZHU,GUA,519000,CN
1941,ZHU,GUA,519000,CN
1942,SAR,FL,34239,US
1943,DUB,AE,18060,AE
1944,DUB,AE,0,AE
1945,DUB,AE,0,AE
1946,SHE,GUA,518000,CN
1947,SHE,GUA,518000,CN
1948,SHE,GUA,518000,CN
1949,SHE,GUA,518000,CN
1950,SHE,GUA,518000,CN
1951,SHE,GUA,518000,CN
1952,SHE,GUA,518000,CN
1953,SHE,GUA,518000,CN
1954,MAP,SOU,3929,KR
1955,MAD,MAD,28046,ES
1956,BEN,KAR,560034,IN
1957,HYD,TG,500027,IN
1958,GOR,MAH,400062,IN
1959,ERO,TN,638004,IN
1960,SEO,SOU,4511,KR
1961,CHE,TN,603002,IN
1962,CHE,TN,603002,IN
1963,CHE,TN,603002,IN
1964,HYD,TG,500088,IN
1965,HYD,TG,500088,IN
1966,SAN,CAN,39011,ES
1967,SHA,ANH,201108,CN
1968,SHA,SHA,201108,CN
1969,SHA,SHA,201108,CN
1970,SHA,SHA,201108,CN
1971,ND,DEL,110005,IN
1972,BAN,KAR,560005,IN
1973,ND,DEL,110070,IN
1974,FOS,GUA,528306,CN
1975,KOL,WB,700141,IN
1976,NY,NY,10017,US
1977,GWA,KYO,14345,KR
1978,SHA,SHA,201407,CN
1979,TAI,JIA,215434,CN
1980,KUN,JIA,215332,CN
1981,KUN,JIA,215332,CN
1982,KUN,JIA,215332,CN
1983,KUN,JIA,215332,CN
1984,KUN,JIA,215332,CN
1985,KUN,JIA,215332,CN
1986,KUN,JIA,215332,CN
1987,KUN,JIA,215332,CN
1988,KUN,JIA,215332,CN
1989,TAI,JIA,215434,CN
1990,TAI,JIA,215434,CN
1991,TAI,JIA,215434,CN
1992,SUZ,JIA,215021,CN
1993,SUZ,JIA,215021,CN
1994,SUZ,JIA,215021,CN
1995,SUZ,JIA,215021,CN
1996,CON,CON,0,ES
1997,MUM,MAH,400093,IN
1998,JIN,SHA,250013,CN
1999,MIL,MI,21000,IT
2000,CEN,HK,0,HK
2001,ND,DEL,110042,IN
2002,DEL,DEL,110015,IN
2003,DEL,DEL,110088,IN
2004,DEL,DEL,110007,IN
2005,DEL,DEL,110034,IN
2006,PUN,MAH,411060,IN
2007,NOI,UP,201305,IN
2008,BAN,KAR,560001,IN
2009,SIH,KYO,15074,KR
2010,BEI,BEI,100022,CN
2011,SHA,SHA,200021,CN
2012,SUR,GUJ,395006,IN
2013,JIA,ZHE,314299,CN
2014,JIA,ZHE,314299,CN
2015,SUZ,JIA,215332,CN
2016,SUZ,JIA,215332,CN
2017,SUZ,JIA,215332,CN
2018,NIN,ZHE,315806,CN
2019,NIN,ZHE,315806,CN
2020,NIN,ZHE,315806,CN
2021,CHE,SIC,610213,CN
2022,WUX,JIA,214111,CN
2023,WUX,JIA,214111,CN
2024,WUX,JIA,214111,CN
2025,CHE,SIC,610213,CN
2026,CHE,SIC,610213,CN
2027,CHE,SIC,610213,CN
2028,KUN,JIA,215313,CN
2029,KUN,JIA,215313,CN
2030,KUN,JIA,215313,CN
2031,SHA,SHA,200336,CN
2032,SHA,SHA,200336,CN
2033,SHA,SHA,200336,CN
2034,CON,CON,0,AE
2035,ROH,HAR,124001,IN
2036,SHA,SHA,200000,CN
2037,TAI,JIA,215434,CN
2038,TAI,JIA,215434,CN
2039,GUR,HAR,122003,IN
2040,HAN,ZHE,310000,CN
2041,SUZ,JIA,215200,CN
2042,ICH,KYO,17396,KR
2043,CON,CON,0,US
2044,MUM,MAH,400051,IN
2045,HK,HK,0,HK
2046,SHA,SHA,200080,CN
2047,BEI,BEI,100015,CN
2048,CON,CON,0,IN
2049,SHA,SHA,201400,CN
2050,SHA,SHA,201400,CN
2051,GUR,HAR,122001,IN
2052,BEI,BEI,100000,CN
2053,SUZ,JIA,215200,CN
2054,HK,NT,0,HK
2055,CHE,TN,602106,IN
2056,JAI,RAJ,302022,IN
2057,BEI,BEI,100102,CN
2058,BEI,BEI,100102,CN
2059,BEI,BEI,100102,CN
2060,CON,CON,0,IN
2061,SUZ,JIA,215200,CN
2062,DUB,AE,0,AE
2063,PUN,MAH,411060,IN
2064,TIR,TN,641662,IN
2065,CHE,TN,600032,IN
